{"type":"FeatureCollection","features":[{"type":"Feature","properties":{"name":"South","abbr":"S","lat":12.9448,"lng":77.58751428571428},"geometry":{"type":"Polygon","coordinates":[[[77.5634,12.9586],[77.5662,12.9249],[77.5772,12.8006],[77.6784,12.9304],[77.5992,13.0324],[77.5648,13.0081],[77.5634,12.9586]]]}},{"type":"Feature","properties":{"name":"East","abbr":"E","lat":12.995077777777775,"lng":77.63782222222223},"geometry":{"type":"Polygon","coordinates":[[[77.6113,12.9956],[77.6207,12.9642],[77.6491,12.9582],[77.6746,13.0006],[77.6737,13.0077],[77.6601,13.0272],[77.6231,13.0059],[77.6165,13.0007],[77.6113,12.9956]]]}},{"type":"Feature","properties":{"name":"West","abbr":"W","lat":12.97066,"lng":77.52666},"geometry":{"type":"Polygon","coordinates":[[[77.4876,13.0168],[77.5433,12.9052],[77.5576,12.8807],[77.5572,13.0338],[77.4876,13.0168]]]}},{"type":"Feature","properties":{"name":"Yelahanka","abbr":"YLK","lat":13.066775,"lng":77.57505},"geometry":{"type":"Polygon","coordinates":[[[77.5416,13.0519],[77.6407,13.0585],[77.5763,13.1048],[77.5416,13.0519]]]}},{"type":"Feature","properties":{"name":"Mahadevapura","abbr":"MDP","lat":12.963142857142856,"lng":77.72042857142857},"geometry":{"type":"Polygon","coordinates":[[[77.6842,12.9904],[77.6865,12.9645],[77.7066,12.9062],[77.7862,12.86],[77.7631,12.9986],[77.7322,13.0319],[77.6842,12.9904]]]}},{"type":"Feature","properties":{"name":"RR Nagar","abbr":"RRN","lat":12.90908,"lng":77.48946},"geometry":{"type":"Polygon","coordinates":[[[77.4481,12.8762],[77.5204,12.9072],[77.5204,12.9396],[77.5103,12.9462],[77.4481,12.8762]]]}},{"type":"Feature","properties":{"name":"Dasarahalli","abbr":"DSH","lat":13.068876,"lng":77.47827199999999},"geometry":{"type":"Polygon","coordinates":[[[77.44233,13.02889],[77.5111,13.0458],[77.5068,13.0823],[77.4888,13.1585],[77.44233,13.02889]]]}},{"type":"Feature","properties":{"name":"Bommanahalli","abbr":"BMH","lat":12.8728675,"lng":77.622885},"geometry":{"type":"Polygon","coordinates":[[[77.5976,12.8894],[77.66354,12.84007],[77.6328,12.8726],[77.5976,12.8894]]]}},{"type":"Feature","properties":{"name":"Anekal","abbr":"ANK","lat":12.77664,"lng":77.6854},"geometry":{"type":"Polygon","coordinates":[[[77.6381,12.7854],[77.6959,12.7108],[77.7701,12.7852],[77.6848,12.8164],[77.6381,12.7854]]]}},{"type":"Feature","properties":{"name":"Devanahalli","abbr":"DVH","lat":13.2411,"lng":77.7062},"geometry":{"type":"Polygon","coordinates":[[[77.6782,13.2131],[77.7482,13.2131],[77.7482,13.283100000000001],[77.6782,13.283100000000001],[77.6782,13.2131]]]}},{"type":"Feature","properties":{"name":"Hoskote","abbr":"HSK","lat":13.0636,"lng":77.7911},"geometry":{"type":"Polygon","coordinates":[[[77.76310000000001,13.0356],[77.8331,13.0356],[77.8331,13.1056],[77.76310000000001,13.1056],[77.76310000000001,13.0356]]]}},{"type":"Feature","properties":{"name":"Nelamangala","abbr":"NLG","lat":13.0919,"lng":77.38660000000002},"geometry":{"type":"Polygon","coordinates":[[[77.35860000000001,13.0639],[77.4286,13.0639],[77.4286,13.1339],[77.35860000000001,13.1339],[77.35860000000001,13.0639]]]}}]}